[
    {
        "CCSDS_OMM_VERS": "3.0",
        "COMMENT": "GENERATED VIA SPACE-TRACK.ORG API",
        "CREATION_DATE": "2025-03-02T18:08:23",
        "ORIGINATOR": "18 SPCS",
        "OBJECT_NAME": "COSMOS 2492 (GLONASS)",
        "OBJECT_ID": "2014-012A",
        "CENTER_NAME": "EARTH",
        "REF_FRAME": "TEME",
        "TIME_SYSTEM": "UTC",
        "MEAN_ELEMENT_THEORY": "SGP4",
        "EPOCH": "2025-03-02T06:18:46.352736",
        "MEAN_MOTION": "2.13103075",
        "ECCENTRICITY": "0.00140040",
        "INCLINATION": "65.5571",
        "RA_OF_ASC_NODE": "329.9323",
        "ARG_OF_PERICENTER": "325.3651",
        "MEAN_ANOMALY": "34.5936",
        "EPHEMERIS_TYPE": "0",
        "CLASSIFICATION_TYPE": "U",
        "NORAD_CAT_ID": "39620",
        "ELEMENT_SET_NO": "999",
        "REV_AT_EPOCH": "8518",
        "BSTAR": "0.00000000000000",
        "MEAN_MOTION_DOT": "-0.00000049",
        "MEAN_MOTION_DDOT": "0.0000000000000",
        "SEMIMAJOR_AXIS": "25507.939",
        "PERIOD": "675.729",
        "APOAPSIS": "19165.525",
        "PERIAPSIS": "19094.082",
        "OBJECT_TYPE": "PAYLOAD",
        "RCS_SIZE": "LARGE",
        "COUNTRY_CODE": "CIS",
        "LAUNCH_DATE": "2014-03-23",
        "SITE": "PKMTR",
        "DECAY_DATE": null,
        "FILE": "4657142",
        "GP_ID": "282084890",
        "TLE_LINE0": "0 COSMOS 2492 (GLONASS)",
        "TLE_LINE1": "1 39620U 14012A   25061.26303649 -.00000049  00000-0  00000-0 0  9999",
        "TLE_LINE2": "2 39620  65.5571 329.9323 0014004 325.3651  34.5936  2.13103075 85180"
    }
]